[Satellite]
VERSION=1.1
NAME=MOLNIYA 1-53
NICKNAME=MOLNIYA 1-53
TLE1=1 13070U 82015A   15054.28958132 -.00000320  00000-0 -15951-1 0  9999
TLE2=2 13070  62.7715 252.8453 7181107 261.4004 175.8954  2.00668890241658
